CCSDS_OMM_VERS = 2.0
CREATION_DATE  = 
ORIGINATOR     = 

OBJECT_NAME    = STARLINK-35526
OBJECT_ID      = 2025-225X
CENTER_NAME    = EARTH
REF_FRAME      = TEME
TIME_SYSTEM    = UTC
MEAN_ELEMENT_THEORY = SGP/SGP4

EPOCH          = 2025-10-29T12:00:02.998944
MEAN_MOTION    = 15.65498109
ECCENTRICITY   = .0001081
INCLINATION    = 53.1601
RA_OF_ASC_NODE = 58.0131
ARG_OF_PERICENTER = 82.7677
MEAN_ANOMALY   = 168.1124

EPHEMERIS_TYPE = 0
CLASSIFICATION_TYPE = U
NORAD_CAT_ID   = 65931
ELEMENT_SET_NO = 999
REV_AT_EPOCH   = 431
BSTAR          = -.22829E-1
MEAN_MOTION_DOT = -.2044181E-1
MEAN_MOTION_DDOT = 0

CCSDS_OMM_VERS = 2.0
CREATION_DATE  = 
ORIGINATOR     = 

OBJECT_NAME    = STARLINK-35436
OBJECT_ID      = 2025-225Y
CENTER_NAME    = EARTH
REF_FRAME      = TEME
TIME_SYSTEM    = UTC
MEAN_ELEMENT_THEORY = SGP/SGP4

EPOCH          = 2025-10-29T12:00:02.998944
MEAN_MOTION    = 15.65498390
ECCENTRICITY   = .0001098
INCLINATION    = 53.1597
RA_OF_ASC_NODE = 58.0098
ARG_OF_PERICENTER = 83.6119
MEAN_ANOMALY   = 169.1814

EPHEMERIS_TYPE = 0
CLASSIFICATION_TYPE = U
NORAD_CAT_ID   = 65932
ELEMENT_SET_NO = 999
REV_AT_EPOCH   = 431
BSTAR          = -.22787E-1
MEAN_MOTION_DOT = -.2040969E-1
MEAN_MOTION_DDOT = 0

CCSDS_OMM_VERS = 2.0
CREATION_DATE  = 
ORIGINATOR     = 

OBJECT_NAME    = STARLINK-35192
OBJECT_ID      = 2025-225Z
CENTER_NAME    = EARTH
REF_FRAME      = TEME
TIME_SYSTEM    = UTC
MEAN_ELEMENT_THEORY = SGP/SGP4

EPOCH          = 2025-10-29T12:00:02.998944
MEAN_MOTION    = 15.65493401
ECCENTRICITY   = .0001094
INCLINATION    = 53.1599
RA_OF_ASC_NODE = 57.9974
ARG_OF_PERICENTER = 83.9848
MEAN_ANOMALY   = 174.5611

EPHEMERIS_TYPE = 0
CLASSIFICATION_TYPE = U
NORAD_CAT_ID   = 65933
ELEMENT_SET_NO = 999
REV_AT_EPOCH   = 431
BSTAR          = -.22701E-1
MEAN_MOTION_DOT = -.2033872E-1
MEAN_MOTION_DDOT = 0

CCSDS_OMM_VERS = 2.0
CREATION_DATE  = 
ORIGINATOR     = 

OBJECT_NAME    = STARLINK-33921
OBJECT_ID      = 2025-225AA
CENTER_NAME    = EARTH
REF_FRAME      = TEME
TIME_SYSTEM    = UTC
MEAN_ELEMENT_THEORY = SGP/SGP4

EPOCH          = 2025-10-29T12:00:02.998944
MEAN_MOTION    = 15.65500414
ECCENTRICITY   = .0001113
INCLINATION    = 53.1596
RA_OF_ASC_NODE = 58.0060
ARG_OF_PERICENTER = 84.7783
MEAN_ANOMALY   = 169.9318

EPHEMERIS_TYPE = 0
CLASSIFICATION_TYPE = U
NORAD_CAT_ID   = 65934
ELEMENT_SET_NO = 999
REV_AT_EPOCH   = 430
BSTAR          = -.2283E-1
MEAN_MOTION_DOT = -.2044455E-1
MEAN_MOTION_DDOT = 0

CCSDS_OMM_VERS = 2.0
CREATION_DATE  = 
ORIGINATOR     = 

OBJECT_NAME    = STARLINK-35155
OBJECT_ID      = 2025-225AB
CENTER_NAME    = EARTH
REF_FRAME      = TEME
TIME_SYSTEM    = UTC
MEAN_ELEMENT_THEORY = SGP/SGP4

EPOCH          = 2025-10-29T12:00:02.998944
MEAN_MOTION    = 15.65490159
ECCENTRICITY   = .0001047
INCLINATION    = 53.1598
RA_OF_ASC_NODE = 58.0017
ARG_OF_PERICENTER = 76.6612
MEAN_ANOMALY   = 179.9664

EPHEMERIS_TYPE = 0
CLASSIFICATION_TYPE = U
NORAD_CAT_ID   = 65935
ELEMENT_SET_NO = 999
REV_AT_EPOCH   = 430
BSTAR          = -.22631E-1
MEAN_MOTION_DOT = -.202805E-1
MEAN_MOTION_DDOT = 0

CCSDS_OMM_VERS = 2.0
CREATION_DATE  = 
ORIGINATOR     = 

OBJECT_NAME    = STARLINK-35161
OBJECT_ID      = 2025-225AC
CENTER_NAME    = EARTH
REF_FRAME      = TEME
TIME_SYSTEM    = UTC
MEAN_ELEMENT_THEORY = SGP/SGP4

EPOCH          = 2025-10-29T12:00:02.998944
MEAN_MOTION    = 15.65497208
ECCENTRICITY   = .0001098
INCLINATION    = 53.1599
RA_OF_ASC_NODE = 57.9940
ARG_OF_PERICENTER = 81.1519
MEAN_ANOMALY   = 179.3085

EPHEMERIS_TYPE = 0
CLASSIFICATION_TYPE = U
NORAD_CAT_ID   = 65936
ELEMENT_SET_NO = 999
REV_AT_EPOCH   = 431
BSTAR          = -.22763E-1
MEAN_MOTION_DOT = -.2038987E-1
MEAN_MOTION_DDOT = 0

CCSDS_OMM_VERS = 2.0
CREATION_DATE  = 
ORIGINATOR     = 

OBJECT_NAME    = STARLINK-35473
OBJECT_ID      = 2025-225AD
CENTER_NAME    = EARTH
REF_FRAME      = TEME
TIME_SYSTEM    = UTC
MEAN_ELEMENT_THEORY = SGP/SGP4

EPOCH          = 2025-10-29T12:00:02.998944
MEAN_MOTION    = 15.65495677
ECCENTRICITY   = .0001073
INCLINATION    = 53.1598
RA_OF_ASC_NODE = 57.9905
ARG_OF_PERICENTER = 85.3276
MEAN_ANOMALY   = 177.0513

EPHEMERIS_TYPE = 0
CLASSIFICATION_TYPE = U
NORAD_CAT_ID   = 65937
ELEMENT_SET_NO = 999
REV_AT_EPOCH   = 432
BSTAR          = -.22742E-1
MEAN_MOTION_DOT = -.2037199E-1
MEAN_MOTION_DDOT = 0

CCSDS_OMM_VERS = 2.0
CREATION_DATE  = 
ORIGINATOR     = 

OBJECT_NAME    = 2025-226A
OBJECT_ID      = 2025-226A
CENTER_NAME    = EARTH
REF_FRAME      = TEME
TIME_SYSTEM    = UTC
MEAN_ELEMENT_THEORY = SGP/SGP4

EPOCH          = 2025-10-29T13:04:16.717152
MEAN_MOTION    = 15.11785967
ECCENTRICITY   = .001454
INCLINATION    = 97.6666
RA_OF_ASC_NODE = 16.7287
ARG_OF_PERICENTER = 216.9993
MEAN_ANOMALY   = 143.0235

EPHEMERIS_TYPE = 0
CLASSIFICATION_TYPE = U
NORAD_CAT_ID   = 65938
ELEMENT_SET_NO = 999
REV_AT_EPOCH   = 279
BSTAR          = .67779E-3
MEAN_MOTION_DOT = .1154E-3
MEAN_MOTION_DDOT = 0

CCSDS_OMM_VERS = 2.0
CREATION_DATE  = 
ORIGINATOR     = 

OBJECT_NAME    = 2025-226B
OBJECT_ID      = 2025-226B
CENTER_NAME    = EARTH
REF_FRAME      = TEME
TIME_SYSTEM    = UTC
MEAN_ELEMENT_THEORY = SGP/SGP4

EPOCH          = 2025-10-29T11:57:15.891840
MEAN_MOTION    = 15.09664474
ECCENTRICITY   = .0020702
INCLINATION    = 97.6620
RA_OF_ASC_NODE = 16.6272
ARG_OF_PERICENTER = 221.3869
MEAN_ANOMALY   = 138.5792

EPHEMERIS_TYPE = 0
CLASSIFICATION_TYPE = U
NORAD_CAT_ID   = 65939
ELEMENT_SET_NO = 999
REV_AT_EPOCH   = 277
BSTAR          = .49513E-3
MEAN_MOTION_DOT = .7948E-4
MEAN_MOTION_DDOT = 0

CCSDS_OMM_VERS = 2.0
CREATION_DATE  = 
ORIGINATOR     = 

OBJECT_NAME    = 2025-226C
OBJECT_ID      = 2025-226C
CENTER_NAME    = EARTH
REF_FRAME      = TEME
TIME_SYSTEM    = UTC
MEAN_ELEMENT_THEORY = SGP/SGP4

EPOCH          = 2025-10-29T13:06:14.312736
MEAN_MOTION    = 15.11674198
ECCENTRICITY   = .0014503
INCLINATION    = 97.6575
RA_OF_ASC_NODE = 16.7071
ARG_OF_PERICENTER = 214.9368
MEAN_ANOMALY   = 145.0911

EPHEMERIS_TYPE = 0
CLASSIFICATION_TYPE = U
NORAD_CAT_ID   = 65940
ELEMENT_SET_NO = 999
REV_AT_EPOCH   = 278
BSTAR          = .67916E-3
MEAN_MOTION_DOT = .11528E-3
MEAN_MOTION_DDOT = 0

