STARLINK-35526          
1 65931U 25225X   25302.50003471 -.02044181  00000+0 -22829-1 0  9997
2 65931  53.1601  58.0131 0001081  82.7677 168.1124 15.65498109  4316
STARLINK-35436          
1 65932U 25225Y   25302.50003471 -.02040969  00000+0 -22787-1 0  9991
2 65932  53.1597  58.0098 0001098  83.6119 169.1814 15.65498390  4311
STARLINK-35192          
1 65933U 25225Z   25302.50003471 -.02033872  00000+0 -22701-1 0  9993
2 65933  53.1599  57.9974 0001094  83.9848 174.5611 15.65493401  4316
STARLINK-33921          
1 65934U 25225AA  25302.50003471 -.02044455  00000+0 -22830-1 0  9996
2 65934  53.1596  58.0060 0001113  84.7783 169.9318 15.65500414  4305
STARLINK-35155          
1 65935U 25225AB  25302.50003471 -.02028050  00000+0 -22631-1 0  9999
2 65935  53.1598  58.0017 0001047  76.6612 179.9664 15.65490159  4306
STARLINK-35161          
1 65936U 25225AC  25302.50003471 -.02038987  00000+0 -22763-1 0  9996
2 65936  53.1599  57.9940 0001098  81.1519 179.3085 15.65497208  4318
STARLINK-35473          
1 65937U 25225AD  25302.50003471 -.02037199  00000+0 -22742-1 0  9998
2 65937  53.1598  57.9905 0001073  85.3276 177.0513 15.65495677  4328
2025-226A               
1 65938U 25226A   25302.54463793  .00011540  00000+0  67779-3 0  9990
2 65938  97.6666  16.7287 0014540 216.9993 143.0235 15.11785967  2793
2025-226B               
1 65939U 25226B   25302.49810060  .00007948  00000+0  49513-3 0  9991
2 65939  97.6620  16.6272 0020702 221.3869 138.5792 15.09664474  2777
2025-226C               
1 65940U 25226C   25302.54599899  .00011528  00000+0  67916-3 0  9999
2 65940  97.6575  16.7071 0014503 214.9368 145.0911 15.11674198  2784
